[{"OBJECT_NAME":"LAPAN-A3","OBJECT_ID":"2016-040E","EPOCH":"2026-03-09T23:01:57.724896","MEAN_MOTION":15.3238951,"ECCENTRICITY":0.00109839,"INCLINATION":97.1488,"RA_OF_ASC_NODE":68.4254,"ARG_OF_PERICENTER":22.062,"MEAN_ANOMALY":338.1093,"EPHEMERIS_TYPE":0,"CLASSIFICATION_TYPE":"U","NORAD_CAT_ID":41603,"ELEMENT_SET_NO":999,"REV_AT_EPOCH":53961,"BSTAR":0.00017567445,"MEAN_MOTION_DOT":5.428e-5,"MEAN_MOTION_DDOT":0},{"OBJECT_NAME":"STARLINK-35104","OBJECT_ID":"2025-210K","EPOCH":"2026-03-09T21:13:10.559136","MEAN_MOTION":15.30210038,"ECCENTRICITY":0.00012873,"INCLINATION":53.1572,"RA_OF_ASC_NODE":305.9794,"ARG_OF_PERICENTER":127.6005,"MEAN_ANOMALY":232.5113,"EPHEMERIS_TYPE":0,"CLASSIFICATION_TYPE":"U","NORAD_CAT_ID":65631,"ELEMENT_SET_NO":999,"REV_AT_EPOCH":2775,"BSTAR":0.00091469647,"MEAN_MOTION_DOT":0.00026838,"MEAN_MOTION_DDOT":0}]
